#cP2009  1 19  0  0  0.00000000      96 ORBIT IGS05 HLM  IGS
## 1515  86400.00000000   900.00000000 54850 0.0000000000000
+   17   R02R03R04R07R10R11R13R14R15R17R18R19R20R21R22R23R24
+          0  0  0  0  0  0  0  0  0  0  0  0  0  0  0  0  0
+          0  0  0  0  0  0  0  0  0  0  0  0  0  0  0  0  0
+          0  0  0  0  0  0  0  0  0  0  0  0  0  0  0  0  0
+          0  0  0  0  0  0  0  0  0  0  0  0  0  0  0  0  0
++         4  4  3  3  4  4  4  3  3  4  4  4  4  4  4  4  4
++         0  0  0  0  0  0  0  0  0  0  0  0  0  0  0  0  0
++         0  0  0  0  0  0  0  0  0  0  0  0  0  0  0  0  0
++         0  0  0  0  0  0  0  0  0  0  0  0  0  0  0  0  0
++         0  0  0  0  0  0  0  0  0  0  0  0  0  0  0  0  0
%c R  cc GPS ccc cccc cccc cccc cccc ccccc ccccc ccccc ccccc
%c cc cc ccc ccc cccc cccc cccc cccc ccccc ccccc ccccc ccccc
%f  1.2500000  1.025000000  0.00000000000  0.000000000000000
%f  0.0000000  0.000000000  0.00000000000  0.000000000000000
%i    0    0    0    0      0      0      0      0         0
%i    0    0    0    0      0      0      0      0         0
/* FINAL ORBIT COMBINATION FROM WEIGHTED AVERAGE OF:        
/* bkg brx cod esx iac mcc                                  
/*                                                          
/* PCV:IGS05_1515 OL/AL:FES2004  NONE     Y  ORB:CMB CLK:CMB
*  2009  1 19  7 30  0.00000000
PR02  15331.794325   7960.026213 -18757.540319     41.100684  9 13 15           
PR03   6909.546007  -9175.000277 -22773.726492    -16.744739 10 12  9           
PR04  -3409.006367 -19522.966302 -16192.679638    108.632275 10  7  9           
PR07  -6933.273768   9445.832996  22643.983316   -105.451983 11 11  5           
PR10 -20023.421665   7558.800081 -13954.748197   -144.036425  9  7 13           
PR11  -2499.005936  10864.360261 -22932.117367    -86.232705 11 13  3           
PR13  25372.513552     33.580947  -2578.820357   -223.305693  7 12  9           
PR14  19963.003846  -7544.589246  13904.895804    -97.680901  6  6  9           
PR15   2619.198446 -10754.719378  22999.982361     85.833544  9 12  6           
PR17  14311.309900 -19565.895150   8075.534681   -254.432482 11 12 14           
PR18   6397.579523 -22667.019639  -9616.299103      2.304407 12  9 10           
PR19  -4939.474023 -12593.038301 -21631.335201    -82.567019 13  5  9           
PR20 -13652.912806   5067.969667 -20958.259188    -63.519736  7  4  9           
PR21 -14184.892058  19517.100307  -8132.104980   -133.065997 12 12 11           
PR22  -6477.579121  22796.482830   9629.629597   -183.877220  9  7 12           
PR23   5225.214805  12152.249897  21813.617799   -233.010833 16 14  9           
PR24  13993.826702  -6178.804190  20394.957068    -62.421707  8 11 11           
*  2009  1 19  7 45  0.00000000
PR02  16630.440277   9726.142552 -16705.239652     41.098229  9 13 15           
PR03   8468.071955  -6812.667108 -23074.510263    -16.747758 10 13  9           
PR04  -2264.419345 -17755.359323 -18301.894770    108.627363 11  8  8           
PR07  -8593.447988   7175.510680  22904.813699   -105.449782 11 11  6           
PR10 -21555.186461   7856.590824 -11251.311148   -144.035381  8  7 13           
PR11  -5283.808184  11112.817719 -22325.518278    -86.233749 11 13  5           
PR13  24848.774306    -84.622612  -5745.840868   -223.307668  8 11  9           
PR14  21496.987938  -7832.978863  11189.528799    -97.677882  6  5 10           
PR15   5402.224445 -11044.540783  22377.785459     85.835520 10 12  6           
PR17  13670.683118 -18568.581562  11000.727778   -254.433414 11 13 14           
PR18   6697.606876 -23637.886597  -6598.997185      2.302432 12  9 10           
PR19  -3894.488252 -14959.991165 -20295.878299    -82.568063 13  5  8           
PR20 -12462.205583   2692.407192 -22102.883603    -63.519736  5  5  9           
PR21 -13560.184530  18499.865786 -11061.407133   -133.069016 12 12 11           
PR22  -6757.768633  23764.789474   6627.357626   -183.879196  9  7 12           
PR23   4154.876451  14538.568738  20550.368473   -233.005612 16 14 10           
PR24  12814.774731  -3862.157863  21705.702551    -62.422638  7 11 10           
*  2009  1 19  8  0  0.00000000
PR02  17888.292797  11176.733477 -14328.150056     41.095773 10 14 15           
PR03  10201.415283  -4563.492881 -22927.086122    -16.749395 10 13  8           
PR04   -847.285263 -15890.878802 -20059.431990    108.620677 11  8  8           
PR07 -10413.776367   5025.060248  22720.128488   -105.447327 11 11  7           
PR10 -22719.590968   8213.363821  -8330.447333   -144.034562  5  7 13           
PR11  -7943.305115  11550.403476 -21284.539632    -86.234568 11 14  7           
PR13  23939.115755   -107.335101  -8801.194261   -223.308487  8 11  9           
PR14  22661.687971  -8179.380499   8255.804971    -97.676245  5  5 10           
PR15   8053.141459 -11524.876981  21322.272272     85.836338 10 12  6           
PR17  12979.425139 -17204.126310  13713.214524   -254.433414 10 13 13           
PR18   6789.580743 -24272.671878  -3452.457597      2.301613 12  8 11           
PR19  -3094.778369 -17221.776774 -18566.455212    -82.568882 13  5  8           
PR20 -11407.656668    128.565071 -22818.687711    -63.519736  3  6 10           
PR21 -12886.588712  17115.234767 -13774.755444   -133.070653 13 12 11           
PR22  -6831.285938  24400.206294   3497.423425   -183.880014  8  7 13           
PR23   3329.072640  16829.522941  18888.269611   -233.001519 15 14 11           
PR24  11759.452715  -1340.099257  22594.537041    -62.422638  7 11 10           
*  2009  1 19  8 15  0.00000000
PR02  19043.928725  12299.172682 -11672.454142     41.093317 11 14 15           
PR03  12064.885106  -2481.586873 -22334.307271    -16.752415 10 14  8           
PR04    829.803234 -13992.585981 -21431.782267    108.615766 11  8  8           
PR07 -12347.524759   3045.077544  22093.452805   -105.444194 10 11  8           
PR10 -23495.051413   8574.070374  -5248.627584   -144.032587  2  7 13           
PR11 -10413.957975  12149.663361 -19829.133109    -86.235612 10 14  8           
PR13  22673.198353     14.565827 -11685.533070   -223.309531  9 11  8           
PR14  23435.275871  -8528.507222   5160.940619    -97.677882  4  5 10           
PR15  10508.922367 -12167.162377  19854.228619     85.837383 11 11  7           
PR17  12294.952031 -15490.062248  16160.442251   -254.435276 10 13 13           
PR18   6718.516128 -24537.285980   -238.304707      2.299638 12  8 11           
PR19  -2534.274564 -19312.297693 -16476.608816    -82.569926 12  6  8           
PR20 -10525.958957  -2564.473095 -23091.542402    -63.520668  3  6 10           
PR21 -12221.604582  15381.888909 -16219.351701   -133.073673 13 12 11           
PR22  -6742.981113  24668.888554    300.106241   -183.882907  8  7 13           
PR23   2743.413344  18958.674870  16859.671991   -232.993505 15 14 12           
PR24  10867.283328   1330.260204  23044.520169    -62.423570  7 11 10           
*  2009  1 19  8 30  0.00000000
PR02  20036.673331  13093.835667  -8789.769248     41.090862 12 14 15           
PR03  14005.292607   -612.093269 -21307.674933    -16.754052 10 14  8           
PR04   2742.256146 -12121.492706 -22392.781813    108.610854 11  8  7           
PR07 -14340.187409   1276.930950  21036.921623   -105.441739 10 10  8           
PR10 -23873.168651   8881.618582  -2065.403930   -144.031768  4  8 14           
PR11 -12639.321239  12872.795551 -17987.370206    -86.236430 10 14  9           
PR13  21092.087133    323.363067 -14342.858780   -223.310349  9 11  8           
PR14  23809.323448  -8823.056314   1965.331326    -97.676245  3  5 11           
PR15  12713.974831 -12932.593237  18002.348417     85.838201 11 11  8           
PR17  11671.436870 -13456.523840  18294.925483   -254.435276 10 14 13           
PR18   6535.633430 -24409.712845   2980.516682      2.298819 12  7 11           
PR19  -2194.873582 -21169.625891 -14066.880026    -82.570745 12  6  7           
PR20  -9843.036365  -5321.496163 -22915.896827    -63.520668  6  7 11           
PR21 -11619.319231  13331.143089 -18347.735070   -133.075310 13 12 11           
PR22  -6543.789601  24548.711016  -2902.990371   -183.884544  7  8 13           
PR23   2381.386885  20863.421158  14504.012146   -232.989412 15 13 13           
PR24  10167.241772   4085.144817  23047.250650    -62.423570  8 11 10           
*  2009  1 19  8 45  0.00000000
PR02  20809.215923  13573.828300  -5736.142160     41.088406 13 14 15           
PR03  15963.043915   1010.471609 -19867.116691    -16.757071 11 14  7           
PR04   4854.265392 -10334.147202 -22924.081724    108.604590 10  9  6           
PR07 -16331.629301   -248.751073  19571.047726   -105.427431 10 10  8           
PR10 -23858.946197   9079.477684   1157.724676   -144.030724  7  9 14           
PR11 -14572.170825  13673.296979 -15794.913801    -86.238406 10 14 10           
PR13  19246.589368    852.471660 -16721.608153   -223.311394  9 11  7           
PR14  23789.030124  -9006.361785  -1268.644336    -97.674156  4  5 10           
PR15  14622.188222 -13773.824176  15802.664073     85.840177 12 10  8           
PR17  11157.407404 -11145.227409  20075.163934   -254.436208  9 14 12           
PR18   6295.919866 -23880.998366   6141.005949      2.296844 12  6 11           
PR19  -2047.421643 -22738.458497 -11384.025386    -82.571789 12  6  7           
PR20  -9373.004899  -8073.631088 -22294.905222    -63.520668  7  8 11           
PR21 -11127.990017  11005.833093 -20118.701465   -133.077398 14 12 10           
PR22  -6288.367628  24030.253402  -6050.098532   -183.885701  6  8 13           
PR23   2215.280046  22487.466266  11867.044887   -232.983260 15 13 14           
PR24   9676.705325   6856.531263  22603.002712    -62.485968  8 11 10           
EOF
